[{"OBJECT_NAME":"ONEWEB-0166","OBJECT_ID":"2021-025Z","EPOCH":"2026-01-14T10:05:35.872512","MEAN_MOTION":13.13470205,"ECCENTRICITY":0.00018775,"INCLINATION":87.9003,"RA_OF_ASC_NODE":350.7523,"ARG_OF_PERICENTER":88.8905,"MEAN_ANOMALY":271.2439,"EPHEMERIS_TYPE":0,"CLASSIFICATION_TYPE":"U","NORAD_CAT_ID":48065,"ELEMENT_SET_NO":999,"REV_AT_EPOCH":23346,"BSTAR":-0.00048976771,"MEAN_MOTION_DOT":-1.66e-6,"MEAN_MOTION_DDOT":0},{"OBJECT_NAME":"ONEWEB-0151","OBJECT_ID":"2021-025AA","EPOCH":"2026-01-14T10:08:02.378400","MEAN_MOTION":13.13470962,"ECCENTRICITY":0.0001632,"INCLINATION":87.9003,"RA_OF_ASC_NODE":350.7788,"ARG_OF_PERICENTER":82.7398,"MEAN_ANOMALY":277.3917,"EPHEMERIS_TYPE":0,"CLASSIFICATION_TYPE":"U","NORAD_CAT_ID":48066,"ELEMENT_SET_NO":999,"REV_AT_EPOCH":23340,"BSTAR":-0.00055379188,"MEAN_MOTION_DOT":-1.89e-6,"MEAN_MOTION_DDOT":0},{"OBJECT_NAME":"ONEWEB-0170","OBJECT_ID":"2021-025AB","EPOCH":"2026-01-14T10:20:11.920992","MEAN_MOTION":13.13468913,"ECCENTRICITY":0.00016368,"INCLINATION":87.8999,"RA_OF_ASC_NODE":350.7802,"ARG_OF_PERICENTER":68.3236,"MEAN_ANOMALY":291.8068,"EPHEMERIS_TYPE":0,"CLASSIFICATION_TYPE":"U","NORAD_CAT_ID":48067,"ELEMENT_SET_NO":999,"REV_AT_EPOCH":23336,"BSTAR":-0.00020676205,"MEAN_MOTION_DOT":-6.3e-7,"MEAN_MOTION_DDOT":0},{"OBJECT_NAME":"ONEWEB-0168","OBJECT_ID":"2021-025AC","EPOCH":"2026-01-14T11:47:58.916832","MEAN_MOTION":13.13469697,"ECCENTRICITY":0.00016943,"INCLINATION":87.9008,"RA_OF_ASC_NODE":350.7555,"ARG_OF_PERICENTER":89.707,"MEAN_ANOMALY":270.4253,"EPHEMERIS_TYPE":0,"CLASSIFICATION_TYPE":"U","NORAD_CAT_ID":48068,"ELEMENT_SET_NO":999,"REV_AT_EPOCH":23338,"BSTAR":-0.00083540871,"MEAN_MOTION_DOT":-2.92e-6,"MEAN_MOTION_DDOT":0},{"OBJECT_NAME":"ONEWEB-0173","OBJECT_ID":"2021-025AD","EPOCH":"2026-01-14T11:35:47.473440","MEAN_MOTION":13.13469775,"ECCENTRICITY":0.00014486,"INCLINATION":87.9007,"RA_OF_ASC_NODE":350.7647,"ARG_OF_PERICENTER":93.8762,"MEAN_ANOMALY":266.2533,"EPHEMERIS_TYPE":0,"CLASSIFICATION_TYPE":"U","NORAD_CAT_ID":48069,"ELEMENT_SET_NO":999,"REV_AT_EPOCH":23362,"BSTAR":-0.00037952787,"MEAN_MOTION_DOT":-1.26e-6,"MEAN_MOTION_DDOT":0},{"OBJECT_NAME":"ONEWEB-0171","OBJECT_ID":"2021-025AE","EPOCH":"2026-01-14T10:39:43.682976","MEAN_MOTION":13.13470933,"ECCENTRICITY":0.00016515,"INCLINATION":87.8992,"RA_OF_ASC_NODE":350.7905,"ARG_OF_PERICENTER":82.6738,"MEAN_ANOMALY":277.4579,"EPHEMERIS_TYPE":0,"CLASSIFICATION_TYPE":"U","NORAD_CAT_ID":48070,"ELEMENT_SET_NO":999,"REV_AT_EPOCH":23343,"BSTAR":0.0007410544,"MEAN_MOTION_DOT":2.83e-6,"MEAN_MOTION_DDOT":0},{"OBJECT_NAME":"ONEWEB-0172","OBJECT_ID":"2021-025AF","EPOCH":"2026-01-14T10:10:28.419456","MEAN_MOTION":13.13470084,"ECCENTRICITY":0.00016034,"INCLINATION":87.8999,"RA_OF_ASC_NODE":350.7802,"ARG_OF_PERICENTER":84.6975,"MEAN_ANOMALY":275.4337,"EPHEMERIS_TYPE":0,"CLASSIFICATION_TYPE":"U","NORAD_CAT_ID":48071,"ELEMENT_SET_NO":999,"REV_AT_EPOCH":23432,"BSTAR":-0.0004810234,"MEAN_MOTION_DOT":-1.63e-6,"MEAN_MOTION_DDOT":0},{"OBJECT_NAME":"ONEWEB-0174","OBJECT_ID":"2021-025AG","EPOCH":"2026-01-14T11:33:21.136896","MEAN_MOTION":13.1347011,"ECCENTRICITY":0.00018225,"INCLINATION":87.8996,"RA_OF_ASC_NODE":350.7706,"ARG_OF_PERICENTER":88.0416,"MEAN_ANOMALY":272.0922,"EPHEMERIS_TYPE":0,"CLASSIFICATION_TYPE":"U","NORAD_CAT_ID":48072,"ELEMENT_SET_NO":999,"REV_AT_EPOCH":23365,"BSTAR":-0.00024806489,"MEAN_MOTION_DOT":-7.8e-7,"MEAN_MOTION_DDOT":0},{"OBJECT_NAME":"ONEWEB-0175","OBJECT_ID":"2021-025AH","EPOCH":"2026-01-14T10:27:32.599872","MEAN_MOTION":13.13470162,"ECCENTRICITY":0.00015016,"INCLINATION":87.9005,"RA_OF_ASC_NODE":350.7513,"ARG_OF_PERICENTER":75.7442,"MEAN_ANOMALY":284.3853,"EPHEMERIS_TYPE":0,"CLASSIFICATION_TYPE":"U","NORAD_CAT_ID":48073,"ELEMENT_SET_NO":999,"REV_AT_EPOCH":23330,"BSTAR":0.00021846404,"MEAN_MOTION_DOT":9.3e-7,"MEAN_MOTION_DDOT":0},{"OBJECT_NAME":"ONEWEB-0177","OBJECT_ID":"2021-025AJ","EPOCH":"2026-01-14T10:44:36.674880","MEAN_MOTION":13.13470202,"ECCENTRICITY":0.00017439,"INCLINATION":87.9006,"RA_OF_ASC_NODE":350.769,"ARG_OF_PERICENTER":91.0357,"MEAN_ANOMALY":269.0972,"EPHEMERIS_TYPE":0,"CLASSIFICATION_TYPE":"U","NORAD_CAT_ID":48074,"ELEMENT_SET_NO":999,"REV_AT_EPOCH":23349,"BSTAR":0.00068119424,"MEAN_MOTION_DOT":2.62e-6,"MEAN_MOTION_DDOT":0},{"OBJECT_NAME":"ONEWEB-0178","OBJECT_ID":"2021-025AK","EPOCH":"2026-01-14T11:11:37.797216","MEAN_MOTION":13.13468849,"ECCENTRICITY":0.00014443,"INCLINATION":87.8988,"RA_OF_ASC_NODE":350.8024,"ARG_OF_PERICENTER":84.9587,"MEAN_ANOMALY":275.1707,"EPHEMERIS_TYPE":0,"CLASSIFICATION_TYPE":"U","NORAD_CAT_ID":48075,"ELEMENT_SET_NO":999,"REV_AT_EPOCH":23354,"BSTAR":0.00063643587,"MEAN_MOTION_DOT":2.45e-6,"MEAN_MOTION_DDOT":0},{"OBJECT_NAME":"ONEWEB-0108","OBJECT_ID":"2021-025AL","EPOCH":"2026-01-14T10:12:54.432864","MEAN_MOTION":13.13472181,"ECCENTRICITY":0.00019877,"INCLINATION":87.9005,"RA_OF_ASC_NODE":350.7625,"ARG_OF_PERICENTER":82.5307,"MEAN_ANOMALY":277.6048,"EPHEMERIS_TYPE":0,"CLASSIFICATION_TYPE":"U","NORAD_CAT_ID":48076,"ELEMENT_SET_NO":999,"REV_AT_EPOCH":23346,"BSTAR":-0.00066296956,"MEAN_MOTION_DOT":-2.29e-6,"MEAN_MOTION_DDOT":0},{"OBJECT_NAME":"ONEWEB-0169","OBJECT_ID":"2021-025AM","EPOCH":"2026-01-14T10:59:14.005536","MEAN_MOTION":13.13469347,"ECCENTRICITY":0.0001986,"INCLINATION":87.9,"RA_OF_ASC_NODE":350.7756,"ARG_OF_PERICENTER":83.1695,"MEAN_ANOMALY":276.966,"EPHEMERIS_TYPE":0,"CLASSIFICATION_TYPE":"U","NORAD_CAT_ID":48077,"ELEMENT_SET_NO":999,"REV_AT_EPOCH":23212,"BSTAR":0.0010703486,"MEAN_MOTION_DOT":4.04e-6,"MEAN_MOTION_DDOT":0},{"OBJECT_NAME":"ONEWEB-0176","OBJECT_ID":"2021-031A","EPOCH":"2026-01-14T08:16:43.986720","MEAN_MOTION":13.14503977,"ECCENTRICITY":0.00016345,"INCLINATION":87.9024,"RA_OF_ASC_NODE":320.358,"ARG_OF_PERICENTER":78.3657,"MEAN_ANOMALY":281.7656,"EPHEMERIS_TYPE":0,"CLASSIFICATION_TYPE":"U","NORAD_CAT_ID":48210,"ELEMENT_SET_NO":999,"REV_AT_EPOCH":22810,"BSTAR":-0.00017929311,"MEAN_MOTION_DOT":-5.4e-7,"MEAN_MOTION_DDOT":0},{"OBJECT_NAME":"ONEWEB-0184","OBJECT_ID":"2021-031B","EPOCH":"2026-01-14T09:27:31.012416","MEAN_MOTION":13.1450304,"ECCENTRICITY":0.00010356,"INCLINATION":87.9036,"RA_OF_ASC_NODE":320.3326,"ARG_OF_PERICENTER":56.3662,"MEAN_ANOMALY":303.7566,"EPHEMERIS_TYPE":0,"CLASSIFICATION_TYPE":"U","NORAD_CAT_ID":48211,"ELEMENT_SET_NO":999,"REV_AT_EPOCH":22808,"BSTAR":-1.4880117e-5,"MEAN_MOTION_DOT":7.0e-8,"MEAN_MOTION_DDOT":0},{"OBJECT_NAME":"ONEWEB-0179","OBJECT_ID":"2021-031C","EPOCH":"2026-01-14T05:06:01.756512","MEAN_MOTION":13.14505406,"ECCENTRICITY":0.00017765,"INCLINATION":87.9027,"RA_OF_ASC_NODE":320.375,"ARG_OF_PERICENTER":86.5585,"MEAN_ANOMALY":273.5748,"EPHEMERIS_TYPE":0,"CLASSIFICATION_TYPE":"U","NORAD_CAT_ID":48212,"ELEMENT_SET_NO":999,"REV_AT_EPOCH":22810,"BSTAR":0.00073924944,"MEAN_MOTION_DOT":2.87e-6,"MEAN_MOTION_DDOT":0}]
