ONEWEB-0166             
1 48065U 21025Z   26014.42055408 -.00000166  00000+0 -48977-3 0  9996
2 48065  87.9003 350.7523 0001877  88.8905 271.2439 13.13470205233460
ONEWEB-0151             
1 48066U 21025AA  26014.42224975 -.00000189  00000+0 -55379-3 0  9993
2 48066  87.9003 350.7788 0001632  82.7398 277.3917 13.13470962233404
ONEWEB-0170             
1 48067U 21025AB  26014.43069353 -.00000063  00000+0 -20676-3 0  9995
2 48067  87.8999 350.7802 0001636  68.3236 291.8068 13.13468913233366
ONEWEB-0168             
1 48068U 21025AC  26014.49165413 -.00000292  00000+0 -83541-3 0  9990
2 48068  87.9008 350.7555 0001694  89.7070 270.4253 13.13469697233382
ONEWEB-0173             
1 48069U 21025AD  26014.48318835 -.00000126  00000+0 -37953-3 0  9990
2 48069  87.9007 350.7647 0001448  93.8762 266.2533 13.13469775233623
ONEWEB-0171             
1 48070U 21025AE  26014.44425559  .00000283  00000+0  74105-3 0  9992
2 48070  87.8992 350.7905 0001651  82.6738 277.4579 13.13470933233430
ONEWEB-0172             
1 48071U 21025AF  26014.42394004 -.00000163  00000+0 -48102-3 0  9998
2 48071  87.8999 350.7802 0001603  84.6975 275.4337 13.13470084234322
ONEWEB-0174             
1 48072U 21025AG  26014.48149464 -.00000078  00000+0 -24806-3 0  9993
2 48072  87.8996 350.7706 0001822  88.0416 272.0922 13.13470110233652
ONEWEB-0175             
1 48073U 21025AH  26014.43579398  .00000093  00000+0  21846-3 0  9998
2 48073  87.9005 350.7513 0001501  75.7442 284.3853 13.13470162233305
ONEWEB-0177             
1 48074U 21025AJ  26014.44764670  .00000262  00000+0  68119-3 0  9991
2 48074  87.9006 350.7690 0001743  91.0357 269.0972 13.13470202233494
ONEWEB-0178             
1 48075U 21025AK  26014.46640969  .00000245  00000+0  63644-3 0  9997
2 48075  87.8988 350.8024 0001444  84.9587 275.1707 13.13468849233543
ONEWEB-0108             
1 48076U 21025AL  26014.42563001 -.00000229  00000+0 -66297-3 0  9996
2 48076  87.9005 350.7625 0001987  82.5307 277.6048 13.13472181233467
ONEWEB-0169             
1 48077U 21025AM  26014.45780099  .00000404  00000+0  10703-2 0  9991
2 48077  87.9000 350.7756 0001986  83.1695 276.9660 13.13469347232128
ONEWEB-0176             
1 48210U 21031A   26014.34495355 -.00000054  00000+0 -17929-3 0  9994
2 48210  87.9024 320.3580 0001634  78.3657 281.7656 13.14503977228106
ONEWEB-0184             
1 48211U 21031B   26014.39410894  .00000007  00000+0 -14880-4 0  9996
2 48211  87.9036 320.3326 0001035  56.3662 303.7566 13.14503040228088
ONEWEB-0179             
1 48212U 21031C   26014.21252033  .00000287  00000+0  73925-3 0  9990
2 48212  87.9027 320.3750 0001776  86.5585 273.5748 13.14505406228108
